{
  "type": "FeatureCollection",
  "features": [
    {
      "type": "Feature",
      "properties": {
        "norad_id": 42989,
        "name": "SKYSAT-C9",
        "group": "resource",
        "lat": 60.60407196448664,
        "lon": -41.90968481090702,
        "alt_km": 447.31706950605894,
        "timestamp": "2025-12-20T09:36:01.289243+00:00",
        "meta_object_name": "SKYSAT-C9",
        "meta_object_id": "2017-068C",
        "meta_epoch": "2025-12-19T22:08:39.748128",
        "meta_mean_motion": 15.36222028,
        "meta_eccentricity": 0.0010522,
        "meta_inclination": 97.42,
        "meta_ra_of_asc_node": 124.2339,
        "meta_arg_of_pericenter": 64.896,
        "meta_mean_anomaly": 295.3374,
        "meta_ephemeris_type": 0,
        "meta_classification_type": "U",
        "meta_norad_cat_id": 42989,
        "meta_element_set_no": 999,
        "meta_rev_at_epoch": 45518,
        "meta_bstar": 0.00026715,
        "meta_mean_motion_dot": 9.366e-05,
        "meta_mean_motion_ddot": 0,
        "tle_line1": "1 42989U 17068C   25353.92268227  .00009366  00000+0  26715-3 0  9997",
        "tle_line2": "2 42989  97.4200 124.2339 0010522  64.8960 295.3374 15.36222028455180"
      },
      "geometry": {
        "type": "Point",
        "coordinates": [
          -41.90968481090702,
          60.60407196448664
        ]
      }
    },
    {
      "type": "Feature",
      "properties": {
        "norad_id": 42990,
        "name": "SKYSAT-C8",
        "group": "resource",
        "lat": 2.531361304860494,
        "lon": 124.10358624997933,
        "alt_km": 468.9882891668303,
        "timestamp": "2025-12-20T09:36:01.289253+00:00",
        "meta_object_name": "SKYSAT-C8",
        "meta_object_id": "2017-068D",
        "meta_epoch": "2025-12-19T22:37:25.665024",
        "meta_mean_motion": 15.33070014,
        "meta_eccentricity": 0.0001092,
        "meta_inclination": 97.4285,
        "meta_ra_of_asc_node": 123.9747,
        "meta_arg_of_pericenter": 308.4211,
        "meta_mean_anomaly": 51.6933,
        "meta_ephemeris_type": 0,
        "meta_classification_type": "U",
        "meta_norad_cat_id": 42990,
        "meta_element_set_no": 999,
        "meta_rev_at_epoch": 45481,
        "meta_bstar": 0.00025399,
        "meta_mean_motion_dot": 8.035e-05,
        "meta_mean_motion_ddot": 0,
        "tle_line1": "1 42990U 17068D   25353.94265816  .00008035  00000+0  25399-3 0  9991",
        "tle_line2": "2 42990  97.4285 123.9747 0001092 308.4211  51.6933 15.33070014454818"
      },
      "geometry": {
        "type": "Point",
        "coordinates": [
          124.10358624997933,
          2.531361304860494
        ]
      }
    },
    {
      "type": "Feature",
      "properties": {
        "norad_id": 42991,
        "name": "SKYSAT-C7",
        "group": "resource",
        "lat": -21.577577731417023,
        "lon": -57.48883981020202,
        "alt_km": 478.6781304163378,
        "timestamp": "2025-12-20T09:36:01.289263+00:00",
        "meta_object_name": "SKYSAT-C7",
        "meta_object_id": "2017-068E",
        "meta_epoch": "2025-12-20T02:27:17.811072",
        "meta_mean_motion": 15.32471858,
        "meta_eccentricity": 0.0007193,
        "meta_inclination": 97.4292,
        "meta_ra_of_asc_node": 125.1704,
        "meta_arg_of_pericenter": 34.1926,
        "meta_mean_anomaly": 325.9777,
        "meta_ephemeris_type": 0,
        "meta_classification_type": "U",
        "meta_norad_cat_id": 42991,
        "meta_element_set_no": 999,
        "meta_rev_at_epoch": 45490,
        "meta_bstar": 0.00024419,
        "meta_mean_motion_dot": 7.583e-05,
        "meta_mean_motion_ddot": 0,
        "tle_line1": "1 42991U 17068E   25354.10228948  .00007583  00000+0  24419-3 0  9995",
        "tle_line2": "2 42991  97.4292 125.1704 0007193  34.1926 325.9777 15.32471858454901"
      },
      "geometry": {
        "type": "Point",
        "coordinates": [
          -57.48883981020202,
          -21.577577731417023
        ]
      }
    },
    {
      "type": "Feature",
      "properties": {
        "norad_id": 42992,
        "name": "SKYSAT-C6",
        "group": "resource",
        "lat": -63.66369154205641,
        "lon": 141.19239626188798,
        "alt_km": 480.1753086942608,
        "timestamp": "2025-12-20T09:36:01.289274+00:00",
        "meta_object_name": "SKYSAT-C6",
        "meta_object_id": "2017-068F",
        "meta_epoch": "2025-12-19T21:20:18.812832",
        "meta_mean_motion": 15.31627446,
        "meta_eccentricity": 0.0004995,
        "meta_inclination": 97.4326,
        "meta_ra_of_asc_node": 125.389,
        "meta_arg_of_pericenter": 63.135,
        "meta_mean_anomaly": 297.0401,
        "meta_ephemeris_type": 0,
        "meta_classification_type": "U",
        "meta_norad_cat_id": 42992,
        "meta_element_set_no": 999,
        "meta_rev_at_epoch": 45485,
        "meta_bstar": 0.00024148,
        "meta_mean_motion_dot": 7.299e-05,
        "meta_mean_motion_ddot": 0,
        "tle_line1": "1 42992U 17068F   25353.88910663  .00007299  00000+0  24148-3 0  9995",
        "tle_line2": "2 42992  97.4326 125.3890 0004995  63.1350 297.0401 15.31627446454850"
      },
      "geometry": {
        "type": "Point",
        "coordinates": [
          141.19239626188798,
          -63.66369154205641
        ]
      }
    },
    {
      "type": "Feature",
      "properties": {
        "norad_id": 43111,
        "name": "CARTOSAT-2F",
        "group": "resource",
        "lat": 62.35796464673075,
        "lon": 37.48358876061653,
        "alt_km": 501.60143022897955,
        "timestamp": "2025-12-20T09:36:01.289284+00:00",
        "meta_object_name": "CARTOSAT-2F",
        "meta_object_id": "2018-004A",
        "meta_epoch": "2025-12-20T04:34:49.253376",
        "meta_mean_motion": 15.19191936,
        "meta_eccentricity": 0.0001371,
        "meta_inclination": 97.4309,
        "meta_ra_of_asc_node": 51.7086,
        "meta_arg_of_pericenter": 112.2397,
        "meta_mean_anomaly": 247.8983,
        "meta_ephemeris_type": 0,
        "meta_classification_type": "U",
        "meta_norad_cat_id": 43111,
        "meta_element_set_no": 999,
        "meta_rev_at_epoch": 44015,
        "meta_bstar": 0.00021031,
        "meta_mean_motion_dot": 4.357e-05,
        "meta_mean_motion_ddot": 0,
        "tle_line1": "1 43111U 18004A   25354.19084784  .00004357  00000+0  21031-3 0  9991",
        "tle_line2": "2 43111  97.4309  51.7086 0001371 112.2397 247.8983 15.19191936440158"
      },
      "geometry": {
        "type": "Point",
        "coordinates": [
          37.48358876061653,
          62.35796464673075
        ]
      }
    },
    {
      "type": "Feature",
      "properties": {
        "norad_id": 43259,
        "name": "GAOFEN-1 02",
        "group": "resource",
        "lat": 81.91260521942404,
        "lon": -39.039193266313944,
        "alt_km": 633.36018689295,
        "timestamp": "2025-12-20T09:36:01.289294+00:00",
        "meta_object_name": "GAOFEN-1 02",
        "meta_object_id": "2018-031A",
        "meta_epoch": "2025-12-20T04:18:49.600800",
        "meta_mean_motion": 14.76428621,
        "meta_eccentricity": 0.0002269,
        "meta_inclination": 98.0802,
        "meta_ra_of_asc_node": 51.9722,
        "meta_arg_of_pericenter": 188.3773,
        "meta_mean_anomaly": 171.7399,
        "meta_ephemeris_type": 0,
        "meta_classification_type": "U",
        "meta_norad_cat_id": 43259,
        "meta_element_set_no": 999,
        "meta_rev_at_epoch": 41628,
        "meta_bstar": 6.4289e-05,
        "meta_mean_motion_dot": 3.95e-06,
        "meta_mean_motion_ddot": 0,
        "tle_line1": "1 43259U 18031A   25354.17974075  .00000395  00000+0  64289-4 0  9994",
        "tle_line2": "2 43259  98.0802  51.9722 0002269 188.3773 171.7399 14.76428621416283"
      },
      "geometry": {
        "type": "Point",
        "coordinates": [
          -39.039193266313944,
          81.91260521942404
        ]
      }
    },
    {
      "type": "Feature",
      "properties": {
        "norad_id": 43260,
        "name": "GAOFEN-1 03",
        "group": "resource",
        "lat": -25.78770959396419,
        "lon": -131.867140997817,
        "alt_km": 645.9401341351586,
        "timestamp": "2025-12-20T09:36:01.289304+00:00",
        "meta_object_name": "GAOFEN-1 03",
        "meta_object_id": "2018-031B",
        "meta_epoch": "2025-12-20T05:25:02.004096",
        "meta_mean_motion": 14.76450893,
        "meta_eccentricity": 0.0001704,
        "meta_inclination": 98.0789,
        "meta_ra_of_asc_node": 51.8937,
        "meta_arg_of_pericenter": 282.8678,
        "meta_mean_anomaly": 77.2341,
        "meta_ephemeris_type": 0,
        "meta_classification_type": "U",
        "meta_norad_cat_id": 43260,
        "meta_element_set_no": 999,
        "meta_rev_at_epoch": 41628,
        "meta_bstar": 9.6009e-05,
        "meta_mean_motion_dot": 6.16e-06,
        "meta_mean_motion_ddot": 0,
        "tle_line1": "1 43260U 18031B   25354.22571764  .00000616  00000+0  96009-4 0  9991",
        "tle_line2": "2 43260  98.0789  51.8937 0001704 282.8678  77.2341 14.76450893416286"
      },
      "geometry": {
        "type": "Point",
        "coordinates": [
          -131.867140997817,
          -25.78770959396419
        ]
      }
    }
  ]
}